STARLINK-2022           
1 47643U 21012Z   24002.39527896  .00002598  00000+0  19321-3 0  9999
2 47643  53.0555  30.8143 0001325  89.6762 270.4379 15.06402950159578
